STARLINK-34049          
1 64042U 25102W   26088.22248391  .00005711  00000+0  48586-3 0  9998
2 64042  70.0009  65.3808 0003340 270.5391  89.5386 14.98343625 48872
STARLINK-34096          
1 64043U 25102X   26088.20578068  .00009859  00000+0  83235-3 0  9991
2 64043  70.0005  65.3194 0003636 269.6783  90.3959 14.98353143 48769
STARLINK-34081          
1 64044U 25102Y   26088.21413506  .00008094  00000+0  68509-3 0  9995
2 64044  70.0009  65.3500 0003010 269.4800  90.6014 14.98346510 48810
STARLINK-34033          
1 64045U 25102Z   26088.18910043  .00007135  00000+0  60503-3 0  9991
2 64045  70.0011  65.2624 0002980 272.3977  87.6841 14.98339910 48802
STARLINK-33952          
1 64046U 25102AA  26088.18073912  .00006918  00000+0  58671-3 0  9998
2 64046  70.0009  65.2325 0003598 267.8709  92.2038 14.98347824 48876
STARLINK-33961          
1 64047U 25102AB  26088.19743816  .00005914  00000+0  50286-3 0  9996
2 64047  70.0005  65.2915 0002641 273.5718  86.5139 14.98343929 48757
STARLINK-11741 [DTC]    
1 64064U 25107A   26088.09283961  .00231209  00000+0  17549-2 0  9991
2 64064  43.0012 341.8180 0000913 286.4335  73.6432 15.70851073 50345
STARLINK-11709 [DTC]    
1 64065U 25107B   26088.07159264  .00193755  00000+0  14762-2 0  9995
2 64065  43.0002 341.6474 0002056 259.2204 100.8432 15.70877776 50343
STARLINK-11737 [DTC]    
1 64066U 25107C   26088.05566403  .00204384  00000+0  15544-2 0  9991
2 64066  43.0015 341.5184 0002175 259.3973 100.6649 15.70886469 50348
STARLINK-11726 [DTC]    
1 64067U 25107D   26088.04507564  .00304769  00000+0  22959-2 0  9990
2 64067  43.0000 341.4318 0001191 311.9797  48.0969 15.70805148 50342
STARLINK-11700 [DTC]    
1 64068U 25107E   26088.08312446  .00178195  00000+0  13609-2 0  9992
2 64068  43.0007 341.7376 0001943 269.1251  90.9394 15.70869609 50341
STARLINK-11649 [DTC]    
1 64069U 25107F   26088.09813968  .00261658  00000+0  19746-2 0  9994
2 64069  43.0012 341.8585 0002162 277.5304  82.5318 15.70894413 50341
STARLINK-11713 [DTC]    
1 64070U 25107G   26088.06626364  .00218563  00000+0  16474-2 0  9997
2 64070  43.0005 341.6037 0004408 259.1704 100.8668 15.71048841 50349
STARLINK-11719 [DTC]    
1 64071U 25107H   26088.08221525  .00405371  00000+0  29734-2 0  9998
2 64071  43.0004 341.7294 0003160 279.6484  80.4027 15.71140347 50347
STARLINK-11733 [DTC]    
1 64072U 25107J   26088.00002314 -.00063959  00000+0 -49878-3 0  9990
2 64072  43.0000 341.7788 0001640 274.9479 160.1206 15.70839156  5993
STARLINK-11729 [DTC]    
1 64073U 25107K   26087.07019462  .00200619  00000+0  15264-2 0  9994
2 64073  43.0035 347.9018 0002226 259.9710 100.0907 15.70888222 50188
