[{"OBJECT_NAME":"STARLINK-34049","OBJECT_ID":"2025-102W","EPOCH":"2026-03-29T05:20:22.609824","MEAN_MOTION":14.98343625,"ECCENTRICITY":0.000334,"INCLINATION":70.0009,"RA_OF_ASC_NODE":65.3808,"ARG_OF_PERICENTER":270.5391,"MEAN_ANOMALY":89.5386,"EPHEMERIS_TYPE":0,"CLASSIFICATION_TYPE":"U","NORAD_CAT_ID":64042,"ELEMENT_SET_NO":999,"REV_AT_EPOCH":4887,"BSTAR":0.00048586,"MEAN_MOTION_DOT":5.711e-5,"MEAN_MOTION_DDOT":0},{"OBJECT_NAME":"STARLINK-34096","OBJECT_ID":"2025-102X","EPOCH":"2026-03-29T04:56:19.450752","MEAN_MOTION":14.98353143,"ECCENTRICITY":0.0003636,"INCLINATION":70.0005,"RA_OF_ASC_NODE":65.3194,"ARG_OF_PERICENTER":269.6783,"MEAN_ANOMALY":90.3959,"EPHEMERIS_TYPE":0,"CLASSIFICATION_TYPE":"U","NORAD_CAT_ID":64043,"ELEMENT_SET_NO":999,"REV_AT_EPOCH":4876,"BSTAR":0.00083235,"MEAN_MOTION_DOT":9.859e-5,"MEAN_MOTION_DDOT":0},{"OBJECT_NAME":"STARLINK-34081","OBJECT_ID":"2025-102Y","EPOCH":"2026-03-29T05:08:21.269184","MEAN_MOTION":14.9834651,"ECCENTRICITY":0.000301,"INCLINATION":70.0009,"RA_OF_ASC_NODE":65.35,"ARG_OF_PERICENTER":269.48,"MEAN_ANOMALY":90.6014,"EPHEMERIS_TYPE":0,"CLASSIFICATION_TYPE":"U","NORAD_CAT_ID":64044,"ELEMENT_SET_NO":999,"REV_AT_EPOCH":4881,"BSTAR":0.00068509,"MEAN_MOTION_DOT":8.094e-5,"MEAN_MOTION_DDOT":0},{"OBJECT_NAME":"STARLINK-34033","OBJECT_ID":"2025-102Z","EPOCH":"2026-03-29T04:32:18.277152","MEAN_MOTION":14.9833991,"ECCENTRICITY":0.000298,"INCLINATION":70.0011,"RA_OF_ASC_NODE":65.2624,"ARG_OF_PERICENTER":272.3977,"MEAN_ANOMALY":87.6841,"EPHEMERIS_TYPE":0,"CLASSIFICATION_TYPE":"U","NORAD_CAT_ID":64045,"ELEMENT_SET_NO":999,"REV_AT_EPOCH":4880,"BSTAR":0.00060503,"MEAN_MOTION_DOT":7.135e-5,"MEAN_MOTION_DDOT":0},{"OBJECT_NAME":"STARLINK-33952","OBJECT_ID":"2025-102AA","EPOCH":"2026-03-29T04:20:15.859968","MEAN_MOTION":14.98347824,"ECCENTRICITY":0.0003598,"INCLINATION":70.0009,"RA_OF_ASC_NODE":65.2325,"ARG_OF_PERICENTER":267.8709,"MEAN_ANOMALY":92.2038,"EPHEMERIS_TYPE":0,"CLASSIFICATION_TYPE":"U","NORAD_CAT_ID":64046,"ELEMENT_SET_NO":999,"REV_AT_EPOCH":4887,"BSTAR":0.00058671,"MEAN_MOTION_DOT":6.918e-5,"MEAN_MOTION_DDOT":0},{"OBJECT_NAME":"STARLINK-33961","OBJECT_ID":"2025-102AB","EPOCH":"2026-03-29T04:44:18.657024","MEAN_MOTION":14.98343929,"ECCENTRICITY":0.0002641,"INCLINATION":70.0005,"RA_OF_ASC_NODE":65.2915,"ARG_OF_PERICENTER":273.5718,"MEAN_ANOMALY":86.5139,"EPHEMERIS_TYPE":0,"CLASSIFICATION_TYPE":"U","NORAD_CAT_ID":64047,"ELEMENT_SET_NO":999,"REV_AT_EPOCH":4875,"BSTAR":0.00050286,"MEAN_MOTION_DOT":5.914e-5,"MEAN_MOTION_DDOT":0},{"OBJECT_NAME":"STARLINK-11741 [DTC]","OBJECT_ID":"2025-107A","EPOCH":"2026-03-29T02:13:41.342304","MEAN_MOTION":15.70851073,"ECCENTRICITY":9.13e-5,"INCLINATION":43.0012,"RA_OF_ASC_NODE":341.818,"ARG_OF_PERICENTER":286.4335,"MEAN_ANOMALY":73.6432,"EPHEMERIS_TYPE":0,"CLASSIFICATION_TYPE":"U","NORAD_CAT_ID":64064,"ELEMENT_SET_NO":999,"REV_AT_EPOCH":5034,"BSTAR":0.0017549,"MEAN_MOTION_DOT":0.00231209,"MEAN_MOTION_DDOT":0},{"OBJECT_NAME":"STARLINK-11709 [DTC]","OBJECT_ID":"2025-107B","EPOCH":"2026-03-29T01:43:05.604096","MEAN_MOTION":15.70877776,"ECCENTRICITY":0.0002056,"INCLINATION":43.0002,"RA_OF_ASC_NODE":341.6474,"ARG_OF_PERICENTER":259.2204,"MEAN_ANOMALY":100.8432,"EPHEMERIS_TYPE":0,"CLASSIFICATION_TYPE":"U","NORAD_CAT_ID":64065,"ELEMENT_SET_NO":999,"REV_AT_EPOCH":5034,"BSTAR":0.0014762,"MEAN_MOTION_DOT":0.00193755,"MEAN_MOTION_DDOT":0},{"OBJECT_NAME":"STARLINK-11737 [DTC]","OBJECT_ID":"2025-107C","EPOCH":"2026-03-29T01:20:09.372192","MEAN_MOTION":15.70886469,"ECCENTRICITY":0.0002175,"INCLINATION":43.0015,"RA_OF_ASC_NODE":341.5184,"ARG_OF_PERICENTER":259.3973,"MEAN_ANOMALY":100.6649,"EPHEMERIS_TYPE":0,"CLASSIFICATION_TYPE":"U","NORAD_CAT_ID":64066,"ELEMENT_SET_NO":999,"REV_AT_EPOCH":5034,"BSTAR":0.0015544,"MEAN_MOTION_DOT":0.00204384,"MEAN_MOTION_DDOT":0},{"OBJECT_NAME":"STARLINK-11726 [DTC]","OBJECT_ID":"2025-107D","EPOCH":"2026-03-29T01:04:54.535296","MEAN_MOTION":15.70805148,"ECCENTRICITY":0.0001191,"INCLINATION":43,"RA_OF_ASC_NODE":341.4318,"ARG_OF_PERICENTER":311.9797,"MEAN_ANOMALY":48.0969,"EPHEMERIS_TYPE":0,"CLASSIFICATION_TYPE":"U","NORAD_CAT_ID":64067,"ELEMENT_SET_NO":999,"REV_AT_EPOCH":5034,"BSTAR":0.0022959,"MEAN_MOTION_DOT":0.00304769,"MEAN_MOTION_DDOT":0},{"OBJECT_NAME":"STARLINK-11700 [DTC]","OBJECT_ID":"2025-107E","EPOCH":"2026-03-29T01:59:41.953344","MEAN_MOTION":15.70869609,"ECCENTRICITY":0.0001943,"INCLINATION":43.0007,"RA_OF_ASC_NODE":341.7376,"ARG_OF_PERICENTER":269.1251,"MEAN_ANOMALY":90.9394,"EPHEMERIS_TYPE":0,"CLASSIFICATION_TYPE":"U","NORAD_CAT_ID":64068,"ELEMENT_SET_NO":999,"REV_AT_EPOCH":5034,"BSTAR":0.0013609,"MEAN_MOTION_DOT":0.00178195,"MEAN_MOTION_DDOT":0},{"OBJECT_NAME":"STARLINK-11649 [DTC]","OBJECT_ID":"2025-107F","EPOCH":"2026-03-29T02:21:19.268352","MEAN_MOTION":15.70894413,"ECCENTRICITY":0.0002162,"INCLINATION":43.0012,"RA_OF_ASC_NODE":341.8585,"ARG_OF_PERICENTER":277.5304,"MEAN_ANOMALY":82.5318,"EPHEMERIS_TYPE":0,"CLASSIFICATION_TYPE":"U","NORAD_CAT_ID":64069,"ELEMENT_SET_NO":999,"REV_AT_EPOCH":5034,"BSTAR":0.0019746,"MEAN_MOTION_DOT":0.00261658,"MEAN_MOTION_DDOT":0},{"OBJECT_NAME":"STARLINK-11713 [DTC]","OBJECT_ID":"2025-107G","EPOCH":"2026-03-29T01:35:25.178496","MEAN_MOTION":15.71048841,"ECCENTRICITY":0.0004408,"INCLINATION":43.0005,"RA_OF_ASC_NODE":341.6037,"ARG_OF_PERICENTER":259.1704,"MEAN_ANOMALY":100.8668,"EPHEMERIS_TYPE":0,"CLASSIFICATION_TYPE":"U","NORAD_CAT_ID":64070,"ELEMENT_SET_NO":999,"REV_AT_EPOCH":5034,"BSTAR":0.0016474,"MEAN_MOTION_DOT":0.00218563,"MEAN_MOTION_DDOT":0},{"OBJECT_NAME":"STARLINK-11719 [DTC]","OBJECT_ID":"2025-107H","EPOCH":"2026-03-29T01:58:23.397600","MEAN_MOTION":15.71140347,"ECCENTRICITY":0.000316,"INCLINATION":43.0004,"RA_OF_ASC_NODE":341.7294,"ARG_OF_PERICENTER":279.6484,"MEAN_ANOMALY":80.4027,"EPHEMERIS_TYPE":0,"CLASSIFICATION_TYPE":"U","NORAD_CAT_ID":64071,"ELEMENT_SET_NO":999,"REV_AT_EPOCH":5034,"BSTAR":0.0029734,"MEAN_MOTION_DOT":0.00405371,"MEAN_MOTION_DDOT":0},{"OBJECT_NAME":"STARLINK-11733 [DTC]","OBJECT_ID":"2025-107J","EPOCH":"2026-03-29T00:00:01.999296","MEAN_MOTION":15.70839156,"ECCENTRICITY":0.000164,"INCLINATION":43,"RA_OF_ASC_NODE":341.7788,"ARG_OF_PERICENTER":274.9479,"MEAN_ANOMALY":160.1206,"EPHEMERIS_TYPE":0,"CLASSIFICATION_TYPE":"U","NORAD_CAT_ID":64072,"ELEMENT_SET_NO":999,"REV_AT_EPOCH":599,"BSTAR":-0.00049878,"MEAN_MOTION_DOT":-0.00063959,"MEAN_MOTION_DDOT":0},{"OBJECT_NAME":"STARLINK-11729 [DTC]","OBJECT_ID":"2025-107K","EPOCH":"2026-03-28T01:41:04.815168","MEAN_MOTION":15.70888222,"ECCENTRICITY":0.00022266,"INCLINATION":43.0035,"RA_OF_ASC_NODE":347.9018,"ARG_OF_PERICENTER":259.971,"MEAN_ANOMALY":100.0907,"EPHEMERIS_TYPE":0,"CLASSIFICATION_TYPE":"U","NORAD_CAT_ID":64073,"ELEMENT_SET_NO":999,"REV_AT_EPOCH":5018,"BSTAR":0.0015263937,"MEAN_MOTION_DOT":0.00200619,"MEAN_MOTION_DDOT":0}]
